STARLINK-31574          
1 59543U 24074K   26068.17193650 -.00002487  00000+0 -80926-4 0  9998
2 59543  43.0004 346.5792 0000980 281.8473  78.2269 15.27571080105933
PHISAT 2                
1 60470U 24149C   26068.78834181  .00008925  00000+0  31421-3 0  9996
2 60470  97.3806 148.6498 0001175 168.6230 191.5037 15.29548631 86792
